[{"OBJECT_NAME":"STARLINK-37029","OBJECT_ID":"2026-055K","EPOCH":"2026-03-28T20:00:01.999008","MEAN_MOTION":15.960271,"ECCENTRICITY":8.56e-5,"INCLINATION":53.1578,"RA_OF_ASC_NODE":241.6265,"ARG_OF_PERICENTER":58.8052,"MEAN_ANOMALY":12.3755,"EPHEMERIS_TYPE":0,"CLASSIFICATION_TYPE":"U","NORAD_CAT_ID":68271,"ELEMENT_SET_NO":999,"REV_AT_EPOCH":271,"BSTAR":-0.0027061,"MEAN_MOTION_DOT":-0.01138533,"MEAN_MOTION_DDOT":0.00040303},{"OBJECT_NAME":"STARLINK-36974","OBJECT_ID":"2026-055L","EPOCH":"2026-03-28T20:00:01.999008","MEAN_MOTION":15.96248175,"ECCENTRICITY":8.45e-5,"INCLINATION":53.1578,"RA_OF_ASC_NODE":241.6106,"ARG_OF_PERICENTER":61.2341,"MEAN_ANOMALY":17.4929,"EPHEMERIS_TYPE":0,"CLASSIFICATION_TYPE":"U","NORAD_CAT_ID":68272,"ELEMENT_SET_NO":999,"REV_AT_EPOCH":271,"BSTAR":-0.002691,"MEAN_MOTION_DOT":-0.01145802,"MEAN_MOTION_DDOT":0.00040864},{"OBJECT_NAME":"STARLINK-37019","OBJECT_ID":"2026-055M","EPOCH":"2026-03-28T20:00:01.999008","MEAN_MOTION":15.96350335,"ECCENTRICITY":9.06e-5,"INCLINATION":53.1578,"RA_OF_ASC_NODE":241.604,"ARG_OF_PERICENTER":58.2632,"MEAN_ANOMALY":23.3856,"EPHEMERIS_TYPE":0,"CLASSIFICATION_TYPE":"U","NORAD_CAT_ID":68273,"ELEMENT_SET_NO":999,"REV_AT_EPOCH":271,"BSTAR":-0.0026689,"MEAN_MOTION_DOT":-0.01142791,"MEAN_MOTION_DDOT":0.00040712},{"OBJECT_NAME":"STARLINK-37129","OBJECT_ID":"2026-055N","EPOCH":"2026-03-28T20:00:01.999008","MEAN_MOTION":15.9646131,"ECCENTRICITY":8.43e-5,"INCLINATION":53.1576,"RA_OF_ASC_NODE":241.5973,"ARG_OF_PERICENTER":58.5506,"MEAN_ANOMALY":26.4633,"EPHEMERIS_TYPE":0,"CLASSIFICATION_TYPE":"U","NORAD_CAT_ID":68274,"ELEMENT_SET_NO":999,"REV_AT_EPOCH":271,"BSTAR":-0.0026607,"MEAN_MOTION_DOT":-0.01146196,"MEAN_MOTION_DDOT":0.00040979},{"OBJECT_NAME":"STARLINK-37123","OBJECT_ID":"2026-055P","EPOCH":"2026-03-28T20:00:01.999008","MEAN_MOTION":15.9657198,"ECCENTRICITY":9.59e-5,"INCLINATION":53.1579,"RA_OF_ASC_NODE":241.5915,"ARG_OF_PERICENTER":54.1803,"MEAN_ANOMALY":33.6321,"EPHEMERIS_TYPE":0,"CLASSIFICATION_TYPE":"U","NORAD_CAT_ID":68275,"ELEMENT_SET_NO":999,"REV_AT_EPOCH":271,"BSTAR":-0.0026623,"MEAN_MOTION_DOT":-0.01153746,"MEAN_MOTION_DDOT":0.00041518},{"OBJECT_NAME":"STARLINK-37125","OBJECT_ID":"2026-055Q","EPOCH":"2026-03-28T20:00:01.999008","MEAN_MOTION":15.96689083,"ECCENTRICITY":9.16e-5,"INCLINATION":53.1577,"RA_OF_ASC_NODE":241.5833,"ARG_OF_PERICENTER":53.7319,"MEAN_ANOMALY":38.0904,"EPHEMERIS_TYPE":0,"CLASSIFICATION_TYPE":"U","NORAD_CAT_ID":68276,"ELEMENT_SET_NO":999,"REV_AT_EPOCH":271,"BSTAR":-0.0026471,"MEAN_MOTION_DOT":-0.01154572,"MEAN_MOTION_DDOT":0.00041622},{"OBJECT_NAME":"STARLINK-36989","OBJECT_ID":"2026-055R","EPOCH":"2026-03-28T20:00:01.999008","MEAN_MOTION":15.97045793,"ECCENTRICITY":8.68e-5,"INCLINATION":53.1575,"RA_OF_ASC_NODE":241.5621,"ARG_OF_PERICENTER":61.3471,"MEAN_ANOMALY":40.7537,"EPHEMERIS_TYPE":0,"CLASSIFICATION_TYPE":"U","NORAD_CAT_ID":68277,"ELEMENT_SET_NO":999,"REV_AT_EPOCH":271,"BSTAR":-0.0026383,"MEAN_MOTION_DOT":-0.01173276,"MEAN_MOTION_DDOT":0.00043013},{"OBJECT_NAME":"STARLINK-36982","OBJECT_ID":"2026-055S","EPOCH":"2026-03-28T20:00:01.999008","MEAN_MOTION":15.96931166,"ECCENTRICITY":9.0e-5,"INCLINATION":53.1575,"RA_OF_ASC_NODE":241.5693,"ARG_OF_PERICENTER":57.9459,"MEAN_ANOMALY":40.9659,"EPHEMERIS_TYPE":0,"CLASSIFICATION_TYPE":"U","NORAD_CAT_ID":68278,"ELEMENT_SET_NO":999,"REV_AT_EPOCH":271,"BSTAR":-0.0026538,"MEAN_MOTION_DOT":-0.0117279,"MEAN_MOTION_DDOT":0.0004293},{"OBJECT_NAME":"STARLINK-36934","OBJECT_ID":"2026-055T","EPOCH":"2026-03-28T20:00:01.999008","MEAN_MOTION":15.96807909,"ECCENTRICITY":0.0001006,"INCLINATION":53.1576,"RA_OF_ASC_NODE":241.5757,"ARG_OF_PERICENTER":50.6062,"MEAN_ANOMALY":45.0871,"EPHEMERIS_TYPE":0,"CLASSIFICATION_TYPE":"U","NORAD_CAT_ID":68279,"ELEMENT_SET_NO":999,"REV_AT_EPOCH":271,"BSTAR":-0.0026317,"MEAN_MOTION_DOT":-0.01155374,"MEAN_MOTION_DDOT":0.00041726},{"OBJECT_NAME":"STARLINK-37070","OBJECT_ID":"2026-055U","EPOCH":"2026-03-28T20:00:01.999008","MEAN_MOTION":15.97168688,"ECCENTRICITY":9.0e-5,"INCLINATION":53.1578,"RA_OF_ASC_NODE":241.554,"ARG_OF_PERICENTER":61.0511,"MEAN_ANOMALY":44.9331,"EPHEMERIS_TYPE":0,"CLASSIFICATION_TYPE":"U","NORAD_CAT_ID":68280,"ELEMENT_SET_NO":999,"REV_AT_EPOCH":271,"BSTAR":-0.0025999,"MEAN_MOTION_DOT":-0.01164169,"MEAN_MOTION_DDOT":0.00042462},{"OBJECT_NAME":"STARLINK-37134","OBJECT_ID":"2026-055V","EPOCH":"2026-03-28T20:00:01.999008","MEAN_MOTION":15.9741714,"ECCENTRICITY":8.98e-5,"INCLINATION":53.1573,"RA_OF_ASC_NODE":241.5396,"ARG_OF_PERICENTER":57.0049,"MEAN_ANOMALY":55.9564,"EPHEMERIS_TYPE":0,"CLASSIFICATION_TYPE":"U","NORAD_CAT_ID":68281,"ELEMENT_SET_NO":999,"REV_AT_EPOCH":271,"BSTAR":-0.0025777,"MEAN_MOTION_DOT":-0.01170153,"MEAN_MOTION_DDOT":0.0004297},{"OBJECT_NAME":"STARLINK-37160","OBJECT_ID":"2026-055W","EPOCH":"2026-03-28T20:00:01.999008","MEAN_MOTION":15.97296156,"ECCENTRICITY":9.41e-5,"INCLINATION":53.1576,"RA_OF_ASC_NODE":241.5471,"ARG_OF_PERICENTER":56.9128,"MEAN_ANOMALY":52.7214,"EPHEMERIS_TYPE":0,"CLASSIFICATION_TYPE":"U","NORAD_CAT_ID":68282,"ELEMENT_SET_NO":999,"REV_AT_EPOCH":271,"BSTAR":-0.0025988,"MEAN_MOTION_DOT":-0.01171832,"MEAN_MOTION_DDOT":0.00043028},{"OBJECT_NAME":"STARLINK-37124","OBJECT_ID":"2026-055X","EPOCH":"2026-03-28T20:00:01.999008","MEAN_MOTION":15.97527867,"ECCENTRICITY":9.2e-5,"INCLINATION":53.1575,"RA_OF_ASC_NODE":241.5339,"ARG_OF_PERICENTER":63.5365,"MEAN_ANOMALY":52.3373,"EPHEMERIS_TYPE":0,"CLASSIFICATION_TYPE":"U","NORAD_CAT_ID":68283,"ELEMENT_SET_NO":999,"REV_AT_EPOCH":271,"BSTAR":-0.002544,"MEAN_MOTION_DOT":-0.0116206,"MEAN_MOTION_DDOT":0.00042481},{"OBJECT_NAME":"STARLINK-37159","OBJECT_ID":"2026-055Y","EPOCH":"2026-03-28T20:00:01.999008","MEAN_MOTION":15.97662876,"ECCENTRICITY":9.42e-5,"INCLINATION":53.1574,"RA_OF_ASC_NODE":241.5265,"ARG_OF_PERICENTER":70.21,"MEAN_ANOMALY":49.2173,"EPHEMERIS_TYPE":0,"CLASSIFICATION_TYPE":"U","NORAD_CAT_ID":68284,"ELEMENT_SET_NO":999,"REV_AT_EPOCH":271,"BSTAR":-0.0025475,"MEAN_MOTION_DOT":-0.0117229,"MEAN_MOTION_DDOT":0.00043224},{"OBJECT_NAME":"STARLINK-36725","OBJECT_ID":"2026-055Z","EPOCH":"2026-03-28T20:00:01.999008","MEAN_MOTION":15.97773512,"ECCENTRICITY":9.24e-5,"INCLINATION":53.1571,"RA_OF_ASC_NODE":241.52,"ARG_OF_PERICENTER":59.1922,"MEAN_ANOMALY":63.0984,"EPHEMERIS_TYPE":0,"CLASSIFICATION_TYPE":"U","NORAD_CAT_ID":68285,"ELEMENT_SET_NO":999,"REV_AT_EPOCH":271,"BSTAR":-0.0025078,"MEAN_MOTION_DOT":-0.01161242,"MEAN_MOTION_DDOT":0.00042536},{"OBJECT_NAME":"STARLINK-36998","OBJECT_ID":"2026-055AA","EPOCH":"2026-03-28T20:00:01.999008","MEAN_MOTION":15.98045408,"ECCENTRICITY":9.16e-5,"INCLINATION":53.1578,"RA_OF_ASC_NODE":241.5068,"ARG_OF_PERICENTER":59.5534,"MEAN_ANOMALY":69.8543,"EPHEMERIS_TYPE":0,"CLASSIFICATION_TYPE":"U","NORAD_CAT_ID":68286,"ELEMENT_SET_NO":999,"REV_AT_EPOCH":271,"BSTAR":-0.0024829,"MEAN_MOTION_DOT":-0.01167197,"MEAN_MOTION_DDOT":0.00043055}]
