STARLINK-37029          
1 68271U 26055K   26087.83335648 -.01138533  40303-3 -27061-2 0  9992
2 68271  53.1578 241.6265 0000855  58.8052  12.3755 15.96027100  2711
STARLINK-36974          
1 68272U 26055L   26087.83335648 -.01145802  40864-3 -26910-2 0  9994
2 68272  53.1578 241.6106 0000844  61.2341  17.4929 15.96248175  2719
STARLINK-37019          
1 68273U 26055M   26087.83335648 -.01142791  40712-3 -26689-2 0  9994
2 68273  53.1578 241.6040 0000905  58.2632  23.3856 15.96350335  2711
STARLINK-37129          
1 68274U 26055N   26087.83335648 -.01146196  40979-3 -26607-2 0  9993
2 68274  53.1576 241.5973 0000842  58.5506  26.4633 15.96461310  2710
STARLINK-37123          
1 68275U 26055P   26087.83335648 -.01153746  41518-3 -26623-2 0  9991
2 68275  53.1579 241.5915 0000959  54.1803  33.6321 15.96571980  2710
STARLINK-37125          
1 68276U 26055Q   26087.83335648 -.01154572  41622-3 -26471-2 0  9997
2 68276  53.1577 241.5833 0000916  53.7319  38.0904 15.96689083  2718
STARLINK-36989          
1 68277U 26055R   26087.83335648 -.01173276  43013-3 -26383-2 0  9998
2 68277  53.1575 241.5621 0000867  61.3471  40.7537 15.97045793  2718
STARLINK-36982          
1 68278U 26055S   26087.83335648 -.01172790  42930-3 -26538-2 0  9998
2 68278  53.1575 241.5693 0000900  57.9459  40.9659 15.96931166  2717
STARLINK-36934          
1 68279U 26055T   26087.83335648 -.01155374  41726-3 -26317-2 0  9995
2 68279  53.1576 241.5757 0001006  50.6062  45.0871 15.96807909  2717
STARLINK-37070          
1 68280U 26055U   26087.83335648 -.01164169  42462-3 -25999-2 0  9992
2 68280  53.1578 241.5540 0000900  61.0511  44.9331 15.97168688  2712
STARLINK-37134          
1 68281U 26055V   26087.83335648 -.01170153  42970-3 -25777-2 0  9991
2 68281  53.1573 241.5396 0000898  57.0049  55.9564 15.97417140  2714
STARLINK-37160          
1 68282U 26055W   26087.83335648 -.01171832  43028-3 -25988-2 0  9996
2 68282  53.1576 241.5471 0000940  56.9128  52.7214 15.97296156  2715
STARLINK-37124          
1 68283U 26055X   26087.83335648 -.01162060  42481-3 -25440-2 0  9995
2 68283  53.1575 241.5339 0000920  63.5365  52.3373 15.97527867  2711
STARLINK-37159          
1 68284U 26055Y   26087.83335648 -.01172290  43224-3 -25475-2 0  9996
2 68284  53.1574 241.5265 0000942  70.2100  49.2173 15.97662876  2718
STARLINK-36725          
1 68285U 26055Z   26087.83335648 -.01161242  42536-3 -25078-2 0  9996
2 68285  53.1571 241.5200 0000923  59.1922  63.0984 15.97773512  2716
STARLINK-36998          
1 68286U 26055AA  26087.83335648 -.01167198  43055-3 -24829-2 0  9993
2 68286  53.1578 241.5068 0000916  59.5534  69.8543 15.98045408  2713
